{
  "type": "FeatureCollection",
  "features": [
    {
      "type": "Feature",
      "properties": {
        "norad_id": 35671,
        "name": "COSMOS 2251 DEB",
        "group": "cosmos-2251-debris",
        "lat": 72.12801806011709,
        "lon": 168.72606093660775,
        "alt_km": 740.3412784392194,
        "timestamp": "2025-12-27T14:26:30.917916+00:00",
        "meta_object_name": "COSMOS 2251 DEB",
        "meta_object_id": "1993-036APN",
        "meta_epoch": "2025-12-25T14:36:47.670048",
        "meta_mean_motion": 14.48368538,
        "meta_eccentricity": 0.0041274,
        "meta_inclination": 74.0177,
        "meta_ra_of_asc_node": 55.1855,
        "meta_arg_of_pericenter": 227.0867,
        "meta_mean_anomaly": 284.5499,
        "meta_ephemeris_type": 0,
        "meta_classification_type": "U",
        "meta_norad_cat_id": 35671,
        "meta_element_set_no": 999,
        "meta_rev_at_epoch": 86949,
        "meta_bstar": 0.00019838,
        "meta_mean_motion_dot": 7.22e-06,
        "meta_mean_motion_ddot": 0,
        "tle_line1": "1 35671U 93036APN 25359.60888507  .00000722  00000+0  19838-3 0  9991",
        "tle_line2": "2 35671  74.0177  55.1855 0041274 227.0867 284.5499 14.48368538869496"
      },
      "geometry": {
        "type": "Point",
        "coordinates": [
          168.72606093660775,
          72.12801806011709
        ]
      }
    },
    {
      "type": "Feature",
      "properties": {
        "norad_id": 35674,
        "name": "COSMOS 2251 DEB",
        "group": "cosmos-2251-debris",
        "lat": -63.0271718252048,
        "lon": -105.72475902568888,
        "alt_km": 663.8508978566542,
        "timestamp": "2025-12-27T14:26:30.917926+00:00",
        "meta_object_name": "COSMOS 2251 DEB",
        "meta_object_id": "1993-036APR",
        "meta_epoch": "2025-12-27T04:50:36.723552",
        "meta_mean_motion": 14.54435598,
        "meta_eccentricity": 0.00962254,
        "meta_inclination": 74.0593,
        "meta_ra_of_asc_node": 289.1968,
        "meta_arg_of_pericenter": 330.7304,
        "meta_mean_anomaly": 28.8486,
        "meta_ephemeris_type": 0,
        "meta_classification_type": "U",
        "meta_norad_cat_id": 35674,
        "meta_element_set_no": 999,
        "meta_rev_at_epoch": 86321,
        "meta_bstar": 0.0020187253,
        "meta_mean_motion_dot": 9.118e-05,
        "meta_mean_motion_ddot": 0,
        "tle_line1": "1 35674U 93036APR 25361.20181393  .00009118  00000+0  20187-2 0  9998",
        "tle_line2": "2 35674  74.0593 289.1968 0096225 330.7304  28.8486 14.54435598863216"
      },
      "geometry": {
        "type": "Point",
        "coordinates": [
          -105.72475902568888,
          -63.0271718252048
        ]
      }
    },
    {
      "type": "Feature",
      "properties": {
        "norad_id": 35701,
        "name": "COSMOS 2251 DEB",
        "group": "cosmos-2251-debris",
        "lat": -73.74933716813156,
        "lon": -162.39973446105842,
        "alt_km": 1148.913278945768,
        "timestamp": "2025-12-27T14:26:30.917937+00:00",
        "meta_object_name": "COSMOS 2251 DEB",
        "meta_object_id": "1993-036APW",
        "meta_epoch": "2025-12-26T11:04:00.094944",
        "meta_mean_motion": 13.80920099,
        "meta_eccentricity": 0.028895,
        "meta_inclination": 74.0031,
        "meta_ra_of_asc_node": 279.3001,
        "meta_arg_of_pericenter": 125.4027,
        "meta_mean_anomaly": 237.4456,
        "meta_ephemeris_type": 0,
        "meta_classification_type": "U",
        "meta_norad_cat_id": 35701,
        "meta_element_set_no": 999,
        "meta_rev_at_epoch": 62348,
        "meta_bstar": 0.0012985,
        "meta_mean_motion_dot": 1.858e-05,
        "meta_mean_motion_ddot": 0,
        "tle_line1": "1 35701U 93036APW 25360.46111221  .00001858  00000+0  12985-2 0  9999",
        "tle_line2": "2 35701  74.0031 279.3001 0288950 125.4027 237.4456 13.80920099623483"
      },
      "geometry": {
        "type": "Point",
        "coordinates": [
          -162.39973446105842,
          -73.74933716813156
        ]
      }
    },
    {
      "type": "Feature",
      "properties": {
        "norad_id": 35703,
        "name": "COSMOS 2251 DEB",
        "group": "cosmos-2251-debris",
        "lat": 22.567282758704028,
        "lon": 19.846869893492926,
        "alt_km": 569.4426096060815,
        "timestamp": "2025-12-27T14:26:30.917947+00:00",
        "meta_object_name": "COSMOS 2251 DEB",
        "meta_object_id": "1993-036APY",
        "meta_epoch": "2025-12-24T09:00:55.190592",
        "meta_mean_motion": 14.90483201,
        "meta_eccentricity": 0.00644143,
        "meta_inclination": 74.0417,
        "meta_ra_of_asc_node": 19.4725,
        "meta_arg_of_pericenter": 85.5638,
        "meta_mean_anomaly": 275.2899,
        "meta_ephemeris_type": 0,
        "meta_classification_type": "U",
        "meta_norad_cat_id": 35703,
        "meta_element_set_no": 999,
        "meta_rev_at_epoch": 66789,
        "meta_bstar": 0.00063398121,
        "meta_mean_motion_dot": 6.404e-05,
        "meta_mean_motion_ddot": 0,
        "tle_line1": "1 35703U 93036APY 25358.37563878  .00006404  00000+0  63398-3 0  9994",
        "tle_line2": "2 35703  74.0417  19.4725 0064414  85.5638 275.2899 14.90483201667895"
      },
      "geometry": {
        "type": "Point",
        "coordinates": [
          19.846869893492926,
          22.567282758704028
        ]
      }
    },
    {
      "type": "Feature",
      "properties": {
        "norad_id": 35705,
        "name": "COSMOS 2251 DEB",
        "group": "cosmos-2251-debris",
        "lat": -68.08392922283315,
        "lon": 62.864524422318446,
        "alt_km": 672.7670905935529,
        "timestamp": "2025-12-27T14:26:30.917957+00:00",
        "meta_object_name": "COSMOS 2251 DEB",
        "meta_object_id": "1993-036AQA",
        "meta_epoch": "2025-12-21T00:37:19.012800",
        "meta_mean_motion": 14.72474593,
        "meta_eccentricity": 0.00333276,
        "meta_inclination": 74.2752,
        "meta_ra_of_asc_node": 119.9236,
        "meta_arg_of_pericenter": 64.9174,
        "meta_mean_anomaly": 295.5452,
        "meta_ephemeris_type": 0,
        "meta_classification_type": "U",
        "meta_norad_cat_id": 35705,
        "meta_element_set_no": 999,
        "meta_rev_at_epoch": 86048,
        "meta_bstar": 0.0022061245,
        "meta_mean_motion_dot": 0.00014123,
        "meta_mean_motion_ddot": 0,
        "tle_line1": "1 35705U 93036AQA 25355.02591450  .00014123  00000+0  22061-2 0  9990",
        "tle_line2": "2 35705  74.2752 119.9236 0033327  64.9174 295.5452 14.72474593860483"
      },
      "geometry": {
        "type": "Point",
        "coordinates": [
          62.864524422318446,
          -68.08392922283315
        ]
      }
    },
    {
      "type": "Feature",
      "properties": {
        "norad_id": 35706,
        "name": "COSMOS 2251 DEB",
        "group": "cosmos-2251-debris",
        "lat": -66.84392943801846,
        "lon": -99.22764207846542,
        "alt_km": 1266.3206196239616,
        "timestamp": "2025-12-27T14:26:30.917968+00:00",
        "meta_object_name": "COSMOS 2251 DEB",
        "meta_object_id": "1993-036AQB",
        "meta_epoch": "2025-12-21T09:35:04.200288",
        "meta_mean_motion": 13.65940195,
        "meta_eccentricity": 0.03399329,
        "meta_inclination": 73.889,
        "meta_ra_of_asc_node": 48.5024,
        "meta_arg_of_pericenter": 96.6435,
        "meta_mean_anomaly": 267.3485,
        "meta_ephemeris_type": 0,
        "meta_classification_type": "U",
        "meta_norad_cat_id": 35706,
        "meta_element_set_no": 999,
        "meta_rev_at_epoch": 62180,
        "meta_bstar": 0.00062720687,
        "meta_mean_motion_dot": 7.46e-06,
        "meta_mean_motion_ddot": 0,
        "tle_line1": "1 35706U 93036AQB 25355.39935417  .00000746  00000+0  62721-3 0  9990",
        "tle_line2": "2 35706  73.8890  48.5024 0339932  96.6435 267.3485 13.65940195621808"
      },
      "geometry": {
        "type": "Point",
        "coordinates": [
          -99.22764207846542,
          -66.84392943801846
        ]
      }
    },
    {
      "type": "Feature",
      "properties": {
        "norad_id": 35711,
        "name": "COSMOS 2251 DEB",
        "group": "cosmos-2251-debris",
        "lat": 21.704733496762195,
        "lon": 5.402180075599913,
        "alt_km": 720.6367677755261,
        "timestamp": "2025-12-27T14:26:30.917978+00:00",
        "meta_object_name": "COSMOS 2251 DEB",
        "meta_object_id": "1993-036AQG",
        "meta_epoch": "2025-12-26T06:33:16.354080",
        "meta_mean_motion": 14.63833962,
        "meta_eccentricity": 0.0085609,
        "meta_inclination": 74.0438,
        "meta_ra_of_asc_node": 194.4903,
        "meta_arg_of_pericenter": 292.4398,
        "meta_mean_anomaly": 66.7719,
        "meta_ephemeris_type": 0,
        "meta_classification_type": "U",
        "meta_norad_cat_id": 35711,
        "meta_element_set_no": 999,
        "meta_rev_at_epoch": 87969,
        "meta_bstar": 0.00022439,
        "meta_mean_motion_dot": 1.201e-05,
        "meta_mean_motion_ddot": 0,
        "tle_line1": "1 35711U 93036AQG 25360.27310595  .00001201  00000+0  22439-3 0  9992",
        "tle_line2": "2 35711  74.0438 194.4903 0085609 292.4398  66.7719 14.63833962879690"
      },
      "geometry": {
        "type": "Point",
        "coordinates": [
          5.402180075599913,
          21.704733496762195
        ]
      }
    }
  ]
}